STARLINK-30545          
1 58000U 23153K   26028.91948341  .00000265  00000+0  34643-4 0  9990
2 58000  43.0018 284.8708 0000577 244.7570 115.3212 15.02535560128891
STARLINK-30535          
1 58001U 23153L   26029.38149010  .00001053  00000+0  93001-4 0  9998
2 58001  43.0038 282.3169 0001337 253.0417 107.0278 15.02541331128967
STARLINK-30540          
1 58002U 23153M   26029.41811416  .00002015  00000+0  16417-3 0  9993
2 58002  43.0037 282.5760 0001406 250.6151 109.4540 15.02535433128864
STARLINK-30546          
1 58003U 23153N   26029.37816307 -.00001647  00000+0 -10685-3 0  9996
2 58003  43.0048 282.2925 0001280 264.3059  95.7638 15.02534884128961
STARLINK-30539          
1 58004U 23153P   26027.97880782  .00005167  00000+0  39762-3 0  9995
2 58004  43.0046 289.8543 0002069 223.1181 136.9500 15.02507982128756
STARLINK-30530          
1 58005U 23153Q   26027.77271636  .00001676  00000+0  13920-3 0  9995
2 58005  43.0038 290.8840 0001203 268.5556  91.5149 15.02520138128728
STARLINK-30526          
1 58006U 23153R   26028.91677370 -.00000197  00000+0  51136-6 0  9990
2 58006  43.0019 259.6606 0000971 272.8190  87.2541 15.02540000129183
STARLINK-30527          
1 58007U 23153S   26029.41848852  .00002896  00000+0  11472-3 0  9995
2 58007  43.0040  60.1622 0001447 274.9576  85.1111 15.27584134131457
STARLINK-30522          
1 58008U 23153T   26028.72670803  .00005742  00000+0  43980-3 0  9990
2 58008  43.0036 286.0006 0001286 259.9944 100.0753 15.02536351128862
STARLINK-30486          
1 58009U 23153U   26027.97548406  .00000600  00000+0  59472-4 0  9992
2 58009  43.0050 289.8242 0001530 276.0149  84.0519 15.02532586128655
STARLINK-30520          
1 58010U 23153V   26029.42812080  .00003260  00000+0  25640-3 0  9992
2 58010  43.0058 282.6511 0001830 274.9924  85.0710 15.02516734128860
STARLINK-30497          
1 58011U 23153W   26029.42477632  .00003364  00000+0  26392-3 0  9993
2 58011  43.0033 282.6248 0001408 261.5390  98.5292 15.02545042128960
STARLINK-30525          
1 58012U 23153X   26029.41477917  .00000201  00000+0  29979-4 0  9991
2 58012  43.0023 282.5470 0001242 261.8878  98.1823 15.02543654128969
STARLINK-30514          
1 58028U 23156A   26029.33599536  .00001696  00000+0  69363-4 0  9994
2 58028  53.1581 260.9647 0001161  82.0452 278.0681 15.30199697130299
STARLINK-30518          
1 58029U 23156B   26028.95360583  .00000643  00000+0  33837-4 0  9998
2 58029  53.1583 262.8511 0000877  94.3196 265.7905 15.30195057130239
STARLINK-30549          
1 58030U 23156C   26028.91466139  .00000730  00000+0  36786-4 0  9993
2 58030  53.1548 263.1338 0001462  89.1804 270.9364 15.30188252130171
STARLINK-30556          
1 58031U 23156D   26028.93247542  .00003212  00000+0  12055-3 0  9991
2 58031  53.1601 273.0620 0001183  96.4305 263.6831 15.30196469130079
STARLINK-30561          
1 58032U 23156E   26028.92098203 -.00000425  00000+0 -22465-5 0  9992
2 58032  53.1570 263.1697 0000515   4.1332 355.9673 15.30186585130227
STARLINK-30562          
1 58033U 23156F   26028.17371503  .00000166  00000+0  17745-4 0  9991
2 58033  53.1636 356.0871 0001472  89.4426 270.6743 15.30190300128835
STARLINK-30565          
1 58034U 23156G   26028.92309185  .00000598  00000+0  32323-4 0  9990
2 58034  53.1556 263.1899 0000914  70.9008 289.2092 15.30189683130227
STARLINK-30438          
1 58035U 23156H   26029.33071339 -.00003385  00000+0 -10219-3 0  9992
2 58035  53.1590 260.9299 0001174 110.3889 249.7238 15.30211601130241
STARLINK-30437          
1 58036U 23156J   26028.88195774  .00007755  00000+0  27368-3 0  9998
2 58036  53.1587 263.1002 0001081 108.8149 251.2969 15.30199616130175
STARLINK-30533          
1 58037U 23156K   26028.92172334  .00070986  00000+0  23822-2 0  9997
2 58037  53.1596 352.9217 0000645  59.5661 300.5404 15.30252517128941
STARLINK-30560          
1 58038U 23156L   26029.35539963  .00000721  00000+0  36474-4 0  9990
2 58038  53.1595 258.2339 0000901 103.8754 256.2347 15.30191379130286
STARLINK-30559          
1 58039U 23156M   26029.50003471  .00517841  00000+0  67343-2 0  9991
2 58039  53.1505 354.8699 0008608 102.7121 340.3150 15.56464619  5936
STARLINK-30555          
1 58040U 23156N   26028.13056872  .00001737  00000+0  70794-4 0  9992
2 58040  53.1626 356.5371 0001183  88.2094 271.9042 15.30189239128823
STARLINK-30542          
1 58041U 23156P   26028.93463720 -.00000470  00000+0 -37639-5 0  9992
2 58041  53.1595 262.8930 0000842  90.3981 269.7117 15.30195802130227
STARLINK-30563          
1 58042U 23156Q   26028.93299735  .00004375  00000+0  15976-3 0  9990
2 58042  53.1561 260.4217 0001168 100.0901 260.0232 15.30199924130261
STARLINK-30564          
1 58043U 23156R   26028.98945681 -.00040720  00000+0 -13712-2 0  9995
2 58043  53.1574 262.8940 0001064  94.6322 265.4801 15.30176921130235
STARLINK-30547          
1 58044U 23156S   26028.92488443  .00011140  00000+0  38757-3 0  9997
2 58044  53.1599 352.9136 0001336 115.7891 244.3248 15.30209371128941
STARLINK-30550          
1 58045U 23156T   26028.89968462  .00001250  00000+0  54328-4 0  9992
2 58045  53.1593 186.1703 0000572  76.9562 283.1503 15.30196614131288
STARLINK-30548          
1 58046U 23156U   26028.91961404  .00004041  00000+0  14846-3 0  9996
2 58046  53.1603 352.9304 0001389 121.7202 238.3934 15.30204183128892
STARLINK-30529          
1 58047U 23156V   26028.88173612  .00002743  00000+0  10470-3 0  9995
2 58047  53.1619 353.3831 0001363  89.6227 270.4930 15.30203486128888
STARLINK-30554          
1 58048U 23156W   26028.83954915 -.00001913  00000+0 -52528-4 0  9995
2 58048  53.1618 353.1354 0001519  65.9136 294.2024 15.30173722128882
STARLINK-30568          
1 58051U 23158A   26028.97355166  .00000304  00000+0  37592-4 0  9994
2 58051  43.0032 246.4275 0000982 255.8678 104.2055 15.02535276127556
STARLINK-30575          
1 58052U 23158B   26028.98021081  .00000089  00000+0  21668-4 0  9999
2 58052  43.0016 246.4801 0000904 268.9364  91.1375 15.02534263127559
STARLINK-30577          
1 58053U 23158C   26028.90374387 -.00000684  00000+0 -35577-4 0  9999
2 58053  43.0020 246.7474 0001273 270.5921  89.4776 15.02533927127542
STARLINK-30566          
1 58054U 23158D   26029.29594498  .00002731  00000+0  21713-3 0  9999
2 58054  43.0021 244.5487 0001797 261.4695  98.5944 15.02545261127601
STARLINK-30544          
1 58055U 23158E   26028.94691322  .00001804  00000+0  14856-3 0  9995
2 58055  43.0020 246.2288 0000928 237.5183 122.5570 15.02538304127557
STARLINK-30553          
1 58056U 23158F   26028.89041297  .00012305  00000+0  92325-3 0  9995
2 58056  43.0019 246.6652 0001316 267.3445  92.7246 15.02583237127541
STARLINK-30541          
1 58057U 23158G   26029.29261868  .00000675  00000+0  65052-4 0  9994
2 58057  43.0017 244.5233 0000932 279.4831  80.5905 15.02538091127600
STARLINK-30573          
1 58058U 23158H   26029.28594169  .00006209  00000+0  47400-3 0  9992
2 58058  43.0073 244.4706 0003027 262.2811  97.7688 15.02560918127604
STARLINK-30582          
1 58059U 23158J   26028.61119473  .00001642  00000+0  13661-3 0  9998
2 58059  43.0036 248.0121 0001206 227.8428 132.2312 15.02527456127501
STARLINK-30558          
1 58060U 23158K   26028.65114878 -.00000038  00000+0  12297-4 0  9992
2 58060  43.0039 248.2964 0001475 263.1122  96.9553 15.02539191127507
STARLINK-30579          
1 58061U 23158L   26029.20677220  .00000995  00000+0  88688-4 0  9998
2 58061  43.0023 219.4283 0001027 260.8763  99.1963 15.02536867127881
STARLINK-30588          
1 58062U 23158M   26028.93692979  .00000741  00000+0  69902-4 0  9993
2 58062  43.0025 246.1529 0001137 269.3828  90.6884 15.02534781127557
STARLINK-30585          
1 58063U 23158N   26027.99624461 -.00000011  00000+0  14256-4 0  9993
2 58063  43.0035 251.1369 0001047 262.2478  97.8245 15.02534443127410
STARLINK-30587          
1 58064U 23158P   26028.94025151  .00000399  00000+0  44573-4 0  9994
2 58064  43.0022 246.1786 0001120 266.1450  93.9264 15.02535158127556
STARLINK-30576          
1 58065U 23158Q   26027.63732617 -.00000052  00000+0  11186-4 0  9993
2 58065  43.0037 253.6044 0001114 264.0650  96.0066 15.02542324127350
STARLINK-30571          
1 58066U 23158R   26029.31912941 -.00012899  00000+0 -94141-3 0  9995
2 58066  43.0011 243.8613 0001129 278.3027  81.7688 15.02541697127610
STARLINK-30567          
1 58067U 23158S   26028.98131582  .00000026  00000+0  16992-4 0  9998
2 58067  43.0004 246.4700 0001130 269.1624  90.9089 15.02547444127558
STARLINK-30569          
1 58068U 23158T   26028.93362154 -.00002328  00000+0 -15745-3 0  9998
2 58068  43.0041 246.1309 0001794 275.9626  84.1012 15.02508880127557
STARLINK-30480          
1 58069U 23158U   26029.47400050  .00000287  00000+0  19977-4 0  9999
2 58069  43.0062 106.2943 0003438 223.5921 136.4659 15.27579481129243
STARLINK-30532          
1 58070U 23158V   26028.66435476 -.00005660  00000+0 -40411-3 0  9999
2 58070  43.0011 247.5471 0001902 263.1118  96.9508 15.02547215127510
STARLINK-30513          
1 58071U 23158W   26029.50003471  .00557358  00000+0  65919-2 0  9993
2 58071  42.9918 320.4215 0024088 188.9570 276.9006 15.58366820  5956
STARLINK-30506          
1 58072U 23158X   26028.92360401  .00000659  00000+0  63847-4 0  9995
2 58072  42.9991 246.0476 0001030 268.3231  91.7493 15.02535740127551
STARLINK-30604          
1 58075U 23160A   26028.93111851 -.00001677  00000+0 -10907-3 0  9996
2 58075  43.0010 296.5998 0001333 274.9199  85.1491 15.02548443126939
STARLINK-30500          
1 58076U 23160B   26028.94099199  .00001650  00000+0  13720-3 0  9993
2 58076  43.0033 295.8142 0001131 267.7053  92.3660 15.02535849126948
STARLINK-30613          
1 58077U 23160C   26029.45629061  .00006109  00000+0  46701-3 0  9997
2 58077  43.0030 293.6668 0001272 274.3785  85.6911 15.02528810127021
STARLINK-30597          
1 58078U 23160D   26028.80150371  .00000567  00000+0  57063-4 0  9995
2 58078  43.0025 297.3252 0001593 270.6953  89.3707 15.02511426126914
